{
  "type": "FeatureCollection",
  "features": [
    {
      "type": "Feature",
      "properties": {
        "norad_id": 34010,
        "name": "COSMOS 2251 DEB",
        "group": "cosmos-2251-debris",
        "lat": -26.200526201602585,
        "lon": -107.8333191809157,
        "alt_km": 509.33602359282486,
        "timestamp": "2025-12-23T16:57:12.748188+00:00",
        "meta_object_name": "COSMOS 2251 DEB",
        "meta_object_id": "1993-036GV",
        "meta_epoch": "2025-12-22T11:04:03.553536",
        "meta_mean_motion": 15.20239732,
        "meta_eccentricity": 0.00044981,
        "meta_inclination": 73.9984,
        "meta_ra_of_asc_node": 262.9011,
        "meta_arg_of_pericenter": 57.977,
        "meta_mean_anomaly": 302.1864,
        "meta_ephemeris_type": 0,
        "meta_classification_type": "U",
        "meta_norad_cat_id": 34010,
        "meta_element_set_no": 999,
        "meta_rev_at_epoch": 89433,
        "meta_bstar": 0.0045006568,
        "meta_mean_motion_dot": 0.00098985,
        "meta_mean_motion_ddot": 0,
        "tle_line1": "1 34010U 93036GV  25356.46115224  .00098985  00000+0  45007-2 0  9991",
        "tle_line2": "2 34010  73.9984 262.9011 0004498  57.9770 302.1864 15.20239732894336"
      },
      "geometry": {
        "type": "Point",
        "coordinates": [
          -107.8333191809157,
          -26.200526201602585
        ]
      }
    },
    {
      "type": "Feature",
      "properties": {
        "norad_id": 34011,
        "name": "COSMOS 2251 DEB",
        "group": "cosmos-2251-debris",
        "lat": -72.51728032273763,
        "lon": -115.72168216101826,
        "alt_km": 769.5045757021298,
        "timestamp": "2025-12-23T16:57:12.748198+00:00",
        "meta_object_name": "COSMOS 2251 DEB",
        "meta_object_id": "1993-036GW",
        "meta_epoch": "2025-12-20T21:03:41.222016",
        "meta_mean_motion": 14.41804306,
        "meta_eccentricity": 0.0036046,
        "meta_inclination": 74.0145,
        "meta_ra_of_asc_node": 315.0473,
        "meta_arg_of_pericenter": 36.2778,
        "meta_mean_anomaly": 324.0811,
        "meta_ephemeris_type": 0,
        "meta_classification_type": "U",
        "meta_norad_cat_id": 34011,
        "meta_element_set_no": 999,
        "meta_rev_at_epoch": 88033,
        "meta_bstar": 0.00051243,
        "meta_mean_motion_dot": 1.661e-05,
        "meta_mean_motion_ddot": 0,
        "tle_line1": "1 34011U 93036GW  25354.87756044  .00001661  00000+0  51243-3 0  9991",
        "tle_line2": "2 34011  74.0145 315.0473 0036046  36.2778 324.0811 14.41804306880339"
      },
      "geometry": {
        "type": "Point",
        "coordinates": [
          -115.72168216101826,
          -72.51728032273763
        ]
      }
    },
    {
      "type": "Feature",
      "properties": {
        "norad_id": 34014,
        "name": "COSMOS 2251 DEB",
        "group": "cosmos-2251-debris",
        "lat": 12.702630924656276,
        "lon": -96.96567360821751,
        "alt_km": 627.1938258826876,
        "timestamp": "2025-12-23T16:57:12.748208+00:00",
        "meta_object_name": "COSMOS 2251 DEB",
        "meta_object_id": "1993-036GZ",
        "meta_epoch": "2025-12-23T04:24:15.434208",
        "meta_mean_motion": 14.73254198,
        "meta_eccentricity": 0.00374882,
        "meta_inclination": 74.017,
        "meta_ra_of_asc_node": 260.3499,
        "meta_arg_of_pericenter": 37.0908,
        "meta_mean_anomaly": 84.3191,
        "meta_ephemeris_type": 0,
        "meta_classification_type": "U",
        "meta_norad_cat_id": 34014,
        "meta_element_set_no": 999,
        "meta_rev_at_epoch": 89457,
        "meta_bstar": 0.00092045815,
        "meta_mean_motion_dot": 5.986e-05,
        "meta_mean_motion_ddot": 0,
        "tle_line1": "1 34014U 93036GZ  25357.18351197  .00005986  00000+0  92046-3 0  9991",
        "tle_line2": "2 34014  74.0170 260.3499 0037488  37.0908  84.3191 14.73254198894576"
      },
      "geometry": {
        "type": "Point",
        "coordinates": [
          -96.96567360821751,
          12.702630924656276
        ]
      }
    },
    {
      "type": "Feature",
      "properties": {
        "norad_id": 34015,
        "name": "COSMOS 2251 DEB",
        "group": "cosmos-2251-debris",
        "lat": -17.517753736376264,
        "lon": 133.28542081153617,
        "alt_km": 700.8162253564506,
        "timestamp": "2025-12-23T16:57:12.748218+00:00",
        "meta_object_name": "COSMOS 2251 DEB",
        "meta_object_id": "1993-036HA",
        "meta_epoch": "2025-12-22T20:12:20.020896",
        "meta_mean_motion": 14.60369395,
        "meta_eccentricity": 0.00209819,
        "meta_inclination": 74.0244,
        "meta_ra_of_asc_node": 140.1244,
        "meta_arg_of_pericenter": 236.9409,
        "meta_mean_anomaly": 241.5911,
        "meta_ephemeris_type": 0,
        "meta_classification_type": "U",
        "meta_norad_cat_id": 34015,
        "meta_element_set_no": 999,
        "meta_rev_at_epoch": 88678,
        "meta_bstar": 0.0012041911,
        "meta_mean_motion_dot": 5.818e-05,
        "meta_mean_motion_ddot": 0,
        "tle_line1": "1 34015U 93036HA  25356.84189839  .00005818  00000+0  12042-2 0  9997",
        "tle_line2": "2 34015  74.0244 140.1244 0020981 236.9409 241.5911 14.60369395886781"
      },
      "geometry": {
        "type": "Point",
        "coordinates": [
          133.28542081153617,
          -17.517753736376264
        ]
      }
    },
    {
      "type": "Feature",
      "properties": {
        "norad_id": 34018,
        "name": "COSMOS 2251 DEB",
        "group": "cosmos-2251-debris",
        "lat": -57.02210693287077,
        "lon": -80.01647827258697,
        "alt_km": 1096.954493018502,
        "timestamp": "2025-12-23T16:57:12.748229+00:00",
        "meta_object_name": "COSMOS 2251 DEB",
        "meta_object_id": "1993-036HD",
        "meta_epoch": "2025-12-23T05:32:46.161312",
        "meta_mean_motion": 13.81083283,
        "meta_eccentricity": 0.02631947,
        "meta_inclination": 73.878,
        "meta_ra_of_asc_node": 74.3174,
        "meta_arg_of_pericenter": 108.1903,
        "meta_mean_anomaly": 288.0828,
        "meta_ephemeris_type": 0,
        "meta_classification_type": "U",
        "meta_norad_cat_id": 34018,
        "meta_element_set_no": 999,
        "meta_rev_at_epoch": 84802,
        "meta_bstar": 0.00034358477,
        "meta_mean_motion_dot": 4.51e-06,
        "meta_mean_motion_ddot": 0,
        "tle_line1": "1 34018U 93036HD  25357.23108983  .00000451  00000+0  34358-3 0  9998",
        "tle_line2": "2 34018  73.8780  74.3174 0263194 108.1903 288.0828 13.81083283848029"
      },
      "geometry": {
        "type": "Point",
        "coordinates": [
          -80.01647827258697,
          -57.02210693287077
        ]
      }
    },
    {
      "type": "Feature",
      "properties": {
        "norad_id": 34019,
        "name": "COSMOS 2251 DEB",
        "group": "cosmos-2251-debris",
        "lat": -64.40192922146089,
        "lon": -6.353772866253843,
        "alt_km": 777.413032987205,
        "timestamp": "2025-12-23T16:57:12.748239+00:00",
        "meta_object_name": "COSMOS 2251 DEB",
        "meta_object_id": "1993-036HE",
        "meta_epoch": "2025-12-23T04:09:30.710304",
        "meta_mean_motion": 14.33981618,
        "meta_eccentricity": 0.00622914,
        "meta_inclination": 73.9532,
        "meta_ra_of_asc_node": 31.5513,
        "meta_arg_of_pericenter": 211.1848,
        "meta_mean_anomaly": 207.2865,
        "meta_ephemeris_type": 0,
        "meta_classification_type": "U",
        "meta_norad_cat_id": 34019,
        "meta_element_set_no": 999,
        "meta_rev_at_epoch": 87670,
        "meta_bstar": 0.00068635836,
        "meta_mean_motion_dot": 1.931e-05,
        "meta_mean_motion_ddot": 0,
        "tle_line1": "1 34019U 93036HE  25357.17327211  .00001931  00000+0  68636-3 0  9999",
        "tle_line2": "2 34019  73.9532  31.5513 0062291 211.1848 207.2865 14.33981618876703"
      },
      "geometry": {
        "type": "Point",
        "coordinates": [
          -6.353772866253843,
          -64.40192922146089
        ]
      }
    },
    {
      "type": "Feature",
      "properties": {
        "norad_id": 34021,
        "name": "COSMOS 2251 DEB",
        "group": "cosmos-2251-debris",
        "lat": -56.37650817345527,
        "lon": 83.74071510493076,
        "alt_km": 722.3999382425218,
        "timestamp": "2025-12-23T16:57:12.748250+00:00",
        "meta_object_name": "COSMOS 2251 DEB",
        "meta_object_id": "1993-036HG",
        "meta_epoch": "2025-12-23T01:28:05.125152",
        "meta_mean_motion": 14.49983288,
        "meta_eccentricity": 0.00209765,
        "meta_inclination": 74.036,
        "meta_ra_of_asc_node": 110.4487,
        "meta_arg_of_pericenter": 253.5274,
        "meta_mean_anomaly": 279.6674,
        "meta_ephemeris_type": 0,
        "meta_classification_type": "U",
        "meta_norad_cat_id": 34021,
        "meta_element_set_no": 999,
        "meta_rev_at_epoch": 88779,
        "meta_bstar": 0.00044220159,
        "meta_mean_motion_dot": 1.689e-05,
        "meta_mean_motion_ddot": 0,
        "tle_line1": "1 34021U 93036HG  25357.06117043  .00001689  00000+0  44220-3 0  9993",
        "tle_line2": "2 34021  74.0360 110.4487 0020976 253.5274 279.6674 14.49983288887795"
      },
      "geometry": {
        "type": "Point",
        "coordinates": [
          83.74071510493076,
          -56.37650817345527
        ]
      }
    }
  ]
}